FENGYUN 1C DEB          
1 30264U 99025XZ  26064.14374406  .00001772  00000+0  10130-2 0  9990
2 30264  98.9611 123.7072 0106877  58.5891 331.9653 14.08000804977174
FENGYUN 1C DEB          
1 30265U 99025YA  26064.29608869  .00016116  00000+0  32739-2 0  9997
2 30265  98.6608 182.0664 0028798 122.6447 265.7075 14.60947469996064
FENGYUN 1C DEB          
1 30266U 99025YB  26064.19425443  .00003428  00000+0  17138-2 0  9990
2 30266  99.0331 134.5207 0084834 190.7070 192.0333 14.15581055979569
FENGYUN 1C DEB          
1 30267U 99025YC  26064.20065575  .00003421  00000+0  14786-2 0  9998
2 30267  98.8404 140.8667 0055945   7.7646 352.4385 14.24224394984683
FENGYUN 1C DEB          
1 30270U 99025YF  26064.30516796  .00000218  00000+0  14408-3 0  9992
2 30270  98.7002  80.4842 0006049 295.6366  75.4752 14.11315350985266
FENGYUN 1C DEB          
1 30272U 99025YH  26064.11683120  .00002881  00000+0  14888-2 0  9998
2 30272  98.8910 136.5571 0051630 226.1565 133.5336 14.15112825980215
FENGYUN 1C DEB          
1 30273U 99025YJ  26064.33905574  .00001364  00000+0  89406-3 0  9997
2 30273  98.8367  81.4735 0061068  20.5941 351.8801 14.02821437976873
FENGYUN 1C DEB          
1 30274U 99025YK  26063.90538321  .00013851  00000+0  33143-2 0  9992
2 30274  99.3029 206.4450 0002042 273.3553 244.9500 14.53684313994034
FENGYUN 1C DEB          
1 30275U 99025YL  26064.19909316  .00008399  00000+0  23160-2 0  9990
2 30275  98.6203 154.8549 0036048 295.8800  96.1294 14.46690153992769
FENGYUN 1C DEB          
1 30276U 99025YM  26063.67063136  .00003975  00000+0  16262-2 0  9994
2 30276  98.8498 141.2854 0025821 205.6838 154.3062 14.27626592986997
FENGYUN 1C DEB          
1 30277U 99025YN  26064.16288522  .00002122  00000+0  10647-2 0  9992
2 30277  98.9615 140.0999 0120594 304.4084  83.8979 14.13987049979549
FENGYUN 1C DEB          
1 30279U 99025YQ  26064.30279355  .00001502  00000+0  53557-3 0  9993
2 30279  99.1578   7.3762 0217175 196.3411 326.6315 14.23534361987850
FENGYUN 1C DEB          
1 30280U 99025YR  26063.93659251  .00000170  00000+0  14357-3 0  9995
2 30280  98.7840  54.8020 0081306 101.1178 289.1816 13.98395232975558
FENGYUN 1C DEB          
1 30281U 99025YS  26063.48624905  .00000535  00000+0  32308-3 0  9995
2 30281  98.7655  56.2143 0029024   8.6719 109.3735 14.10552440983739
FENGYUN 1C DEB          
1 30282U 99025YT  26064.28987595  .00000570  00000+0  26430-3 0  9990
2 30282  98.5051  68.4892 0210914 124.8875 253.4174 14.13092804985172
FENGYUN 1C DEB          
1 30283U 99025YU  26064.24930653 -.00000257  00000+0 -12154-3 0  9992
2 30283  98.8734  60.7441 0183054 172.7285 257.7268 14.02024545978471
