[{"OBJECT_NAME":"FENGYUN 1C DEB","OBJECT_ID":"1999-025XZ","EPOCH":"2026-03-05T03:26:59.486784","MEAN_MOTION":14.08000804,"ECCENTRICITY":0.01068774,"INCLINATION":98.9611,"RA_OF_ASC_NODE":123.7072,"ARG_OF_PERICENTER":58.5891,"MEAN_ANOMALY":331.9653,"EPHEMERIS_TYPE":0,"CLASSIFICATION_TYPE":"U","NORAD_CAT_ID":30264,"ELEMENT_SET_NO":999,"REV_AT_EPOCH":97717,"BSTAR":0.001013011,"MEAN_MOTION_DOT":1.772e-5,"MEAN_MOTION_DDOT":0},{"OBJECT_NAME":"FENGYUN 1C DEB","OBJECT_ID":"1999-025YA","EPOCH":"2026-03-05T07:06:22.062816","MEAN_MOTION":14.60947469,"ECCENTRICITY":0.00287987,"INCLINATION":98.6608,"RA_OF_ASC_NODE":182.0664,"ARG_OF_PERICENTER":122.6447,"MEAN_ANOMALY":265.7075,"EPHEMERIS_TYPE":0,"CLASSIFICATION_TYPE":"U","NORAD_CAT_ID":30265,"ELEMENT_SET_NO":999,"REV_AT_EPOCH":99606,"BSTAR":0.0032738688,"MEAN_MOTION_DOT":0.00016116,"MEAN_MOTION_DDOT":0},{"OBJECT_NAME":"FENGYUN 1C DEB","OBJECT_ID":"1999-025YB","EPOCH":"2026-03-05T04:39:43.582752","MEAN_MOTION":14.15581055,"ECCENTRICITY":0.00848343,"INCLINATION":99.0331,"RA_OF_ASC_NODE":134.5207,"ARG_OF_PERICENTER":190.707,"MEAN_ANOMALY":192.0333,"EPHEMERIS_TYPE":0,"CLASSIFICATION_TYPE":"U","NORAD_CAT_ID":30266,"ELEMENT_SET_NO":999,"REV_AT_EPOCH":97956,"BSTAR":0.0017137925,"MEAN_MOTION_DOT":3.428e-5,"MEAN_MOTION_DDOT":0},{"OBJECT_NAME":"FENGYUN 1C DEB","OBJECT_ID":"1999-025YC","EPOCH":"2026-03-05T04:48:56.656800","MEAN_MOTION":14.24224394,"ECCENTRICITY":0.0055945,"INCLINATION":98.8404,"RA_OF_ASC_NODE":140.8667,"ARG_OF_PERICENTER":7.7646,"MEAN_ANOMALY":352.4385,"EPHEMERIS_TYPE":0,"CLASSIFICATION_TYPE":"U","NORAD_CAT_ID":30267,"ELEMENT_SET_NO":999,"REV_AT_EPOCH":98468,"BSTAR":0.0014786364,"MEAN_MOTION_DOT":3.421e-5,"MEAN_MOTION_DDOT":0},{"OBJECT_NAME":"FENGYUN 1C DEB","OBJECT_ID":"1999-025YF","EPOCH":"2026-03-05T07:19:26.511744","MEAN_MOTION":14.1131535,"ECCENTRICITY":0.00060491,"INCLINATION":98.7002,"RA_OF_ASC_NODE":80.4842,"ARG_OF_PERICENTER":295.6366,"MEAN_ANOMALY":75.4752,"EPHEMERIS_TYPE":0,"CLASSIFICATION_TYPE":"U","NORAD_CAT_ID":30270,"ELEMENT_SET_NO":999,"REV_AT_EPOCH":98526,"BSTAR":0.00014407768,"MEAN_MOTION_DOT":2.18e-6,"MEAN_MOTION_DDOT":0},{"OBJECT_NAME":"FENGYUN 1C DEB","OBJECT_ID":"1999-025YH","EPOCH":"2026-03-05T02:48:14.215680","MEAN_MOTION":14.15112825,"ECCENTRICITY":0.00516305,"INCLINATION":98.891,"RA_OF_ASC_NODE":136.5571,"ARG_OF_PERICENTER":226.1565,"MEAN_ANOMALY":133.5336,"EPHEMERIS_TYPE":0,"CLASSIFICATION_TYPE":"U","NORAD_CAT_ID":30272,"ELEMENT_SET_NO":999,"REV_AT_EPOCH":98021,"BSTAR":0.0014887868,"MEAN_MOTION_DOT":2.881e-5,"MEAN_MOTION_DDOT":0},{"OBJECT_NAME":"FENGYUN 1C DEB","OBJECT_ID":"1999-025YJ","EPOCH":"2026-03-05T08:08:14.415936","MEAN_MOTION":14.02821437,"ECCENTRICITY":0.0061068,"INCLINATION":98.8367,"RA_OF_ASC_NODE":81.4735,"ARG_OF_PERICENTER":20.5941,"MEAN_ANOMALY":351.8801,"EPHEMERIS_TYPE":0,"CLASSIFICATION_TYPE":"U","NORAD_CAT_ID":30273,"ELEMENT_SET_NO":999,"REV_AT_EPOCH":97687,"BSTAR":0.00089406006,"MEAN_MOTION_DOT":1.364e-5,"MEAN_MOTION_DDOT":0},{"OBJECT_NAME":"FENGYUN 1C DEB","OBJECT_ID":"1999-025YK","EPOCH":"2026-03-04T21:43:45.109344","MEAN_MOTION":14.53684313,"ECCENTRICITY":0.00020428,"INCLINATION":99.3029,"RA_OF_ASC_NODE":206.445,"ARG_OF_PERICENTER":273.3553,"MEAN_ANOMALY":244.95,"EPHEMERIS_TYPE":0,"CLASSIFICATION_TYPE":"U","NORAD_CAT_ID":30274,"ELEMENT_SET_NO":999,"REV_AT_EPOCH":99403,"BSTAR":0.0033143118,"MEAN_MOTION_DOT":0.00013851,"MEAN_MOTION_DDOT":0},{"OBJECT_NAME":"FENGYUN 1C DEB","OBJECT_ID":"1999-025YL","EPOCH":"2026-03-05T04:46:41.649024","MEAN_MOTION":14.46690153,"ECCENTRICITY":0.00360482,"INCLINATION":98.6203,"RA_OF_ASC_NODE":154.8549,"ARG_OF_PERICENTER":295.88,"MEAN_ANOMALY":96.1294,"EPHEMERIS_TYPE":0,"CLASSIFICATION_TYPE":"U","NORAD_CAT_ID":30275,"ELEMENT_SET_NO":999,"REV_AT_EPOCH":99276,"BSTAR":0.0023160147,"MEAN_MOTION_DOT":8.399e-5,"MEAN_MOTION_DDOT":0},{"OBJECT_NAME":"FENGYUN 1C DEB","OBJECT_ID":"1999-025YM","EPOCH":"2026-03-04T16:05:42.549504","MEAN_MOTION":14.27626592,"ECCENTRICITY":0.00258216,"INCLINATION":98.8498,"RA_OF_ASC_NODE":141.2854,"ARG_OF_PERICENTER":205.6838,"MEAN_ANOMALY":154.3062,"EPHEMERIS_TYPE":0,"CLASSIFICATION_TYPE":"U","NORAD_CAT_ID":30276,"ELEMENT_SET_NO":999,"REV_AT_EPOCH":98699,"BSTAR":0.0016262342,"MEAN_MOTION_DOT":3.975e-5,"MEAN_MOTION_DDOT":0},{"OBJECT_NAME":"FENGYUN 1C DEB","OBJECT_ID":"1999-025YN","EPOCH":"2026-03-05T03:54:33.283008","MEAN_MOTION":14.13987049,"ECCENTRICITY":0.0120594,"INCLINATION":98.9615,"RA_OF_ASC_NODE":140.0999,"ARG_OF_PERICENTER":304.4084,"MEAN_ANOMALY":83.8979,"EPHEMERIS_TYPE":0,"CLASSIFICATION_TYPE":"U","NORAD_CAT_ID":30277,"ELEMENT_SET_NO":999,"REV_AT_EPOCH":97954,"BSTAR":0.0010647127,"MEAN_MOTION_DOT":2.122e-5,"MEAN_MOTION_DDOT":0},{"OBJECT_NAME":"FENGYUN 1C DEB","OBJECT_ID":"1999-025YQ","EPOCH":"2026-03-05T07:16:01.362720","MEAN_MOTION":14.23534361,"ECCENTRICITY":0.02171755,"INCLINATION":99.1578,"RA_OF_ASC_NODE":7.3762,"ARG_OF_PERICENTER":196.3411,"MEAN_ANOMALY":326.6315,"EPHEMERIS_TYPE":0,"CLASSIFICATION_TYPE":"U","NORAD_CAT_ID":30279,"ELEMENT_SET_NO":999,"REV_AT_EPOCH":98785,"BSTAR":0.00053556938,"MEAN_MOTION_DOT":1.502e-5,"MEAN_MOTION_DDOT":0},{"OBJECT_NAME":"FENGYUN 1C DEB","OBJECT_ID":"1999-025YR","EPOCH":"2026-03-04T22:28:41.592864","MEAN_MOTION":13.98395232,"ECCENTRICITY":0.00813063,"INCLINATION":98.784,"RA_OF_ASC_NODE":54.802,"ARG_OF_PERICENTER":101.1178,"MEAN_ANOMALY":289.1816,"EPHEMERIS_TYPE":0,"CLASSIFICATION_TYPE":"U","NORAD_CAT_ID":30280,"ELEMENT_SET_NO":999,"REV_AT_EPOCH":97555,"BSTAR":0.00014357417,"MEAN_MOTION_DOT":1.7e-6,"MEAN_MOTION_DDOT":0},{"OBJECT_NAME":"FENGYUN 1C DEB","OBJECT_ID":"1999-025YS","EPOCH":"2026-03-04T11:40:11.917920","MEAN_MOTION":14.1055244,"ECCENTRICITY":0.00290242,"INCLINATION":98.7655,"RA_OF_ASC_NODE":56.2143,"ARG_OF_PERICENTER":8.6719,"MEAN_ANOMALY":109.3735,"EPHEMERIS_TYPE":0,"CLASSIFICATION_TYPE":"U","NORAD_CAT_ID":30281,"ELEMENT_SET_NO":999,"REV_AT_EPOCH":98373,"BSTAR":0.00032307907,"MEAN_MOTION_DOT":5.35e-6,"MEAN_MOTION_DDOT":0},{"OBJECT_NAME":"FENGYUN 1C DEB","OBJECT_ID":"1999-025YT","EPOCH":"2026-03-05T06:57:25.282080","MEAN_MOTION":14.13092804,"ECCENTRICITY":0.02109148,"INCLINATION":98.5051,"RA_OF_ASC_NODE":68.4892,"ARG_OF_PERICENTER":124.8875,"MEAN_ANOMALY":253.4174,"EPHEMERIS_TYPE":0,"CLASSIFICATION_TYPE":"U","NORAD_CAT_ID":30282,"ELEMENT_SET_NO":999,"REV_AT_EPOCH":98517,"BSTAR":0.00026430232,"MEAN_MOTION_DOT":5.7e-6,"MEAN_MOTION_DDOT":0},{"OBJECT_NAME":"FENGYUN 1C DEB","OBJECT_ID":"1999-025YU","EPOCH":"2026-03-05T05:59:00.084192","MEAN_MOTION":14.02024545,"ECCENTRICITY":0.01830541,"INCLINATION":98.8734,"RA_OF_ASC_NODE":60.7441,"ARG_OF_PERICENTER":172.7285,"MEAN_ANOMALY":257.7268,"EPHEMERIS_TYPE":0,"CLASSIFICATION_TYPE":"U","NORAD_CAT_ID":30283,"ELEMENT_SET_NO":999,"REV_AT_EPOCH":97847,"BSTAR":-0.00012154472,"MEAN_MOTION_DOT":-2.57e-6,"MEAN_MOTION_DDOT":0}]
